STARLINK-37060          
1 68150U 26049J   26094.80334416  .00076737  00000+0  39860-3 0  9999
2 68150  97.2856 115.4081 0001286  79.1298 281.0115 15.80774727  3539
STARLINK-37073          
1 68151U 26049K   26094.83335647  .00107833  00000+0  71730-3 0  9994
2 68151  97.2844 115.4090 0001461 112.5593 345.5631 15.75106815  4825
STARLINK-37049          
1 68152U 26049L   26094.83335647  .00064763  00000+0  43284-3 0  9992
2 68152  97.2848 115.4285 0001243 102.2229  41.8936 15.75133174  4828
STARLINK-37072          
1 68153U 26049M   26094.81959552  .00083441  00000+0  55592-3 0  9997
2 68153  97.2845 115.3860 0001414  96.5173 263.6253 15.75144934  3536
STARLINK-36241          
1 68154U 26049N   26094.83159405  .00070960  00000+0  47360-3 0  9995
2 68154  97.2844 115.3685 0001595  90.5024 269.6424 15.75144385  3536
STARLINK-37048          
1 68155U 26049P   26094.79808378  .00064103  00000+0  33368-3 0  9996
2 68155  97.2856 115.4149 0001549  63.2279 296.9148 15.80767792  3539
STARLINK-36313          
1 68156U 26049Q   26094.79883582  .00050939  00000+0  26576-3 0  9992
2 68156  97.2857 115.4135 0001616  64.0951 296.0484 15.80763246  3531
STARLINK-37064          
1 68157U 26049R   26094.80033742  .00074474  00000+0  38699-3 0  9999
2 68157  97.2856 115.4114 0000746  88.8510 271.2844 15.80773575  3537
STARLINK-37069          
1 68158U 26049S   26094.82806552  .00073182  00000+0  48837-3 0  9999
2 68158  97.2844 115.3737 0001654 110.7973 249.3470 15.75139863  3533
STARLINK-37053          
1 68159U 26049T   26094.83335647  .00055928  00000+0  37392-3 0  9995
2 68159  97.2854 115.4441 0001381 104.0480  76.0498 15.75156703  4824
STARLINK-36306          
1 68160U 26049U   26094.82418161  .00056667  00000+0  37898-3 0  9991
2 68160  97.2846 115.3792 0001050 105.4332 254.7050 15.75147231  3531
STARLINK-37057          
1 68161U 26049V   26094.83335647  .00048555  00000+0  32506-3 0  9998
2 68161  97.2854 115.4495 0001489  95.3772  96.7741 15.75153809  4825
STARLINK-37013          
1 68162U 26049W   26094.79206947  .00213406  00000+0  10869-2 0  9990
2 68162  97.2855 115.4224 0001449 102.2511 257.8920 15.80834255  3535
STARLINK-36958          
1 68163U 26049X   26094.83335647  .00134033  00000+0  88870-3 0  9992
2 68163  97.2849 115.4394 0001458 101.7421  66.3785 15.75104927  4826
STARLINK-37002          
1 68164U 26049Y   26094.79432641  .00080507  00000+0  41806-3 0  9994
2 68164  97.2857 115.4194 0001187  51.7970 308.3405 15.80769588  3537
STARLINK-36971          
1 68165U 26049Z   26094.81006574  .00063702  00000+0  42562-3 0  9998
2 68165  97.2850 115.3992 0001202 101.8923 258.2477 15.75143915  3535
