[{"OBJECT_NAME":"STARLINK-37060","OBJECT_ID":"2026-049J","EPOCH":"2026-04-04T19:16:48.935424","MEAN_MOTION":15.80774727,"ECCENTRICITY":0.0001286,"INCLINATION":97.2856,"RA_OF_ASC_NODE":115.4081,"ARG_OF_PERICENTER":79.1298,"MEAN_ANOMALY":281.0115,"EPHEMERIS_TYPE":0,"CLASSIFICATION_TYPE":"U","NORAD_CAT_ID":68150,"ELEMENT_SET_NO":999,"REV_AT_EPOCH":353,"BSTAR":0.0003986,"MEAN_MOTION_DOT":0.00076737,"MEAN_MOTION_DDOT":0},{"OBJECT_NAME":"STARLINK-37073","OBJECT_ID":"2026-049K","EPOCH":"2026-04-04T20:00:01.999008","MEAN_MOTION":15.75106815,"ECCENTRICITY":0.0001461,"INCLINATION":97.2844,"RA_OF_ASC_NODE":115.409,"ARG_OF_PERICENTER":112.5593,"MEAN_ANOMALY":345.5631,"EPHEMERIS_TYPE":0,"CLASSIFICATION_TYPE":"U","NORAD_CAT_ID":68151,"ELEMENT_SET_NO":999,"REV_AT_EPOCH":482,"BSTAR":0.0007173,"MEAN_MOTION_DOT":0.00107833,"MEAN_MOTION_DDOT":0},{"OBJECT_NAME":"STARLINK-37049","OBJECT_ID":"2026-049L","EPOCH":"2026-04-04T20:00:01.999008","MEAN_MOTION":15.75133174,"ECCENTRICITY":0.0001243,"INCLINATION":97.2848,"RA_OF_ASC_NODE":115.4285,"ARG_OF_PERICENTER":102.2229,"MEAN_ANOMALY":41.8936,"EPHEMERIS_TYPE":0,"CLASSIFICATION_TYPE":"U","NORAD_CAT_ID":68152,"ELEMENT_SET_NO":999,"REV_AT_EPOCH":482,"BSTAR":0.00043284,"MEAN_MOTION_DOT":0.00064763,"MEAN_MOTION_DDOT":0},{"OBJECT_NAME":"STARLINK-37072","OBJECT_ID":"2026-049M","EPOCH":"2026-04-04T19:40:13.052928","MEAN_MOTION":15.75144934,"ECCENTRICITY":0.0001414,"INCLINATION":97.2845,"RA_OF_ASC_NODE":115.386,"ARG_OF_PERICENTER":96.5173,"MEAN_ANOMALY":263.6253,"EPHEMERIS_TYPE":0,"CLASSIFICATION_TYPE":"U","NORAD_CAT_ID":68153,"ELEMENT_SET_NO":999,"REV_AT_EPOCH":353,"BSTAR":0.00055592,"MEAN_MOTION_DOT":0.00083441,"MEAN_MOTION_DDOT":0},{"OBJECT_NAME":"STARLINK-36241","OBJECT_ID":"2026-049N","EPOCH":"2026-04-04T19:57:29.725920","MEAN_MOTION":15.75144385,"ECCENTRICITY":0.0001595,"INCLINATION":97.2844,"RA_OF_ASC_NODE":115.3685,"ARG_OF_PERICENTER":90.5024,"MEAN_ANOMALY":269.6424,"EPHEMERIS_TYPE":0,"CLASSIFICATION_TYPE":"U","NORAD_CAT_ID":68154,"ELEMENT_SET_NO":999,"REV_AT_EPOCH":353,"BSTAR":0.0004736,"MEAN_MOTION_DOT":0.0007096,"MEAN_MOTION_DDOT":0},{"OBJECT_NAME":"STARLINK-37048","OBJECT_ID":"2026-049P","EPOCH":"2026-04-04T19:09:14.438592","MEAN_MOTION":15.80767792,"ECCENTRICITY":0.0001549,"INCLINATION":97.2856,"RA_OF_ASC_NODE":115.4149,"ARG_OF_PERICENTER":63.2279,"MEAN_ANOMALY":296.9148,"EPHEMERIS_TYPE":0,"CLASSIFICATION_TYPE":"U","NORAD_CAT_ID":68155,"ELEMENT_SET_NO":999,"REV_AT_EPOCH":353,"BSTAR":0.00033368,"MEAN_MOTION_DOT":0.00064103,"MEAN_MOTION_DDOT":0},{"OBJECT_NAME":"STARLINK-36313","OBJECT_ID":"2026-049Q","EPOCH":"2026-04-04T19:10:19.414848","MEAN_MOTION":15.80763246,"ECCENTRICITY":0.0001616,"INCLINATION":97.2857,"RA_OF_ASC_NODE":115.4135,"ARG_OF_PERICENTER":64.0951,"MEAN_ANOMALY":296.0484,"EPHEMERIS_TYPE":0,"CLASSIFICATION_TYPE":"U","NORAD_CAT_ID":68156,"ELEMENT_SET_NO":999,"REV_AT_EPOCH":353,"BSTAR":0.00026576,"MEAN_MOTION_DOT":0.00050939,"MEAN_MOTION_DDOT":0},{"OBJECT_NAME":"STARLINK-37064","OBJECT_ID":"2026-049R","EPOCH":"2026-04-04T19:12:29.153088","MEAN_MOTION":15.80773575,"ECCENTRICITY":7.46e-5,"INCLINATION":97.2856,"RA_OF_ASC_NODE":115.4114,"ARG_OF_PERICENTER":88.851,"MEAN_ANOMALY":271.2844,"EPHEMERIS_TYPE":0,"CLASSIFICATION_TYPE":"U","NORAD_CAT_ID":68157,"ELEMENT_SET_NO":999,"REV_AT_EPOCH":353,"BSTAR":0.00038699,"MEAN_MOTION_DOT":0.00074474,"MEAN_MOTION_DDOT":0},{"OBJECT_NAME":"STARLINK-37069","OBJECT_ID":"2026-049S","EPOCH":"2026-04-04T19:52:24.860928","MEAN_MOTION":15.75139863,"ECCENTRICITY":0.0001654,"INCLINATION":97.2844,"RA_OF_ASC_NODE":115.3737,"ARG_OF_PERICENTER":110.7973,"MEAN_ANOMALY":249.347,"EPHEMERIS_TYPE":0,"CLASSIFICATION_TYPE":"U","NORAD_CAT_ID":68158,"ELEMENT_SET_NO":999,"REV_AT_EPOCH":353,"BSTAR":0.00048837,"MEAN_MOTION_DOT":0.00073182,"MEAN_MOTION_DDOT":0},{"OBJECT_NAME":"STARLINK-37053","OBJECT_ID":"2026-049T","EPOCH":"2026-04-04T20:00:01.999008","MEAN_MOTION":15.75156703,"ECCENTRICITY":0.0001381,"INCLINATION":97.2854,"RA_OF_ASC_NODE":115.4441,"ARG_OF_PERICENTER":104.048,"MEAN_ANOMALY":76.0498,"EPHEMERIS_TYPE":0,"CLASSIFICATION_TYPE":"U","NORAD_CAT_ID":68159,"ELEMENT_SET_NO":999,"REV_AT_EPOCH":482,"BSTAR":0.00037392,"MEAN_MOTION_DOT":0.00055928,"MEAN_MOTION_DDOT":0},{"OBJECT_NAME":"STARLINK-36306","OBJECT_ID":"2026-049U","EPOCH":"2026-04-04T19:46:49.291104","MEAN_MOTION":15.75147231,"ECCENTRICITY":0.000105,"INCLINATION":97.2846,"RA_OF_ASC_NODE":115.3792,"ARG_OF_PERICENTER":105.4332,"MEAN_ANOMALY":254.705,"EPHEMERIS_TYPE":0,"CLASSIFICATION_TYPE":"U","NORAD_CAT_ID":68160,"ELEMENT_SET_NO":999,"REV_AT_EPOCH":353,"BSTAR":0.00037898,"MEAN_MOTION_DOT":0.00056667,"MEAN_MOTION_DDOT":0},{"OBJECT_NAME":"STARLINK-37057","OBJECT_ID":"2026-049V","EPOCH":"2026-04-04T20:00:01.999008","MEAN_MOTION":15.75153809,"ECCENTRICITY":0.0001489,"INCLINATION":97.2854,"RA_OF_ASC_NODE":115.4495,"ARG_OF_PERICENTER":95.3772,"MEAN_ANOMALY":96.7741,"EPHEMERIS_TYPE":0,"CLASSIFICATION_TYPE":"U","NORAD_CAT_ID":68161,"ELEMENT_SET_NO":999,"REV_AT_EPOCH":482,"BSTAR":0.00032506,"MEAN_MOTION_DOT":0.00048555,"MEAN_MOTION_DDOT":0},{"OBJECT_NAME":"STARLINK-37013","OBJECT_ID":"2026-049W","EPOCH":"2026-04-04T19:00:34.802208","MEAN_MOTION":15.80834255,"ECCENTRICITY":0.0001449,"INCLINATION":97.2855,"RA_OF_ASC_NODE":115.4224,"ARG_OF_PERICENTER":102.2511,"MEAN_ANOMALY":257.892,"EPHEMERIS_TYPE":0,"CLASSIFICATION_TYPE":"U","NORAD_CAT_ID":68162,"ELEMENT_SET_NO":999,"REV_AT_EPOCH":353,"BSTAR":0.0010869,"MEAN_MOTION_DOT":0.00213406,"MEAN_MOTION_DDOT":0},{"OBJECT_NAME":"STARLINK-36958","OBJECT_ID":"2026-049X","EPOCH":"2026-04-04T20:00:01.999008","MEAN_MOTION":15.75104927,"ECCENTRICITY":0.0001458,"INCLINATION":97.2849,"RA_OF_ASC_NODE":115.4394,"ARG_OF_PERICENTER":101.7421,"MEAN_ANOMALY":66.3785,"EPHEMERIS_TYPE":0,"CLASSIFICATION_TYPE":"U","NORAD_CAT_ID":68163,"ELEMENT_SET_NO":999,"REV_AT_EPOCH":482,"BSTAR":0.0008887,"MEAN_MOTION_DOT":0.00134033,"MEAN_MOTION_DDOT":0},{"OBJECT_NAME":"STARLINK-37002","OBJECT_ID":"2026-049Y","EPOCH":"2026-04-04T19:03:49.801824","MEAN_MOTION":15.80769588,"ECCENTRICITY":0.0001187,"INCLINATION":97.2857,"RA_OF_ASC_NODE":115.4194,"ARG_OF_PERICENTER":51.797,"MEAN_ANOMALY":308.3405,"EPHEMERIS_TYPE":0,"CLASSIFICATION_TYPE":"U","NORAD_CAT_ID":68164,"ELEMENT_SET_NO":999,"REV_AT_EPOCH":353,"BSTAR":0.00041806,"MEAN_MOTION_DOT":0.00080507,"MEAN_MOTION_DDOT":0},{"OBJECT_NAME":"STARLINK-36971","OBJECT_ID":"2026-049Z","EPOCH":"2026-04-04T19:26:29.679936","MEAN_MOTION":15.75143915,"ECCENTRICITY":0.0001202,"INCLINATION":97.285,"RA_OF_ASC_NODE":115.3992,"ARG_OF_PERICENTER":101.8923,"MEAN_ANOMALY":258.2477,"EPHEMERIS_TYPE":0,"CLASSIFICATION_TYPE":"U","NORAD_CAT_ID":68165,"ELEMENT_SET_NO":999,"REV_AT_EPOCH":353,"BSTAR":0.00042562,"MEAN_MOTION_DOT":0.00063702,"MEAN_MOTION_DDOT":0}]
